MOST                    
1 27843U 03031D   26090.98566513  .00000124  00000+0  76849-4 0  9995
2 27843  98.7078  99.7812 0010888 113.0571 247.1755 14.21305539179746
CUTE-1 (CO-55)          
1 27844U 03031E   26090.97385580  .00000449  00000+0  21335-3 0  9997
2 27844  98.6771 100.4967 0010512  54.3759 305.8398 14.24284909180686
CUBESAT XI-IV (CO-57)   
1 27848U 03031J   26090.99404898  .00000369  00000+0  18105-3 0  9999
2 27848  98.6804 100.2915 0010565  70.7946 289.4374 14.23577169180397
SCISAT 1                
1 27858U 03036A   26091.10454611  .00000983  00000+0  13038-3 0  9999
2 27858  73.9308 324.4895 0006279  39.1185 321.0444 14.81354478220038
COSMOS 2400             
1 27868U 03037A   26091.17065951 -.00000010  00000+0 -13917-3 0  9992
2 27868  82.4761  18.1378 0020510 222.6151 137.3339 12.45188125 27955
COSMOS 2401             
1 27869U 03037B   26091.15243634 -.00000031  00000+0 -28227-3 0  9990
2 27869  82.4758  14.5629 0021307 217.9147 142.0435 12.45500957 28185
USA 170                 
1 27875U 03040A   26090.83189334  .00000120  00000+0  00000+0 0  9993
2 27875  10.3384  48.6675 0001978 359.9369 104.1632  1.00272632 32224
MOZHAETS 4 (RS22)       
1 27939U 03042A   26091.21137581  .00001397  00000+0  22404-3 0  9999
2 27939  98.3454 273.4022 0011872 147.7798 328.2037 14.73316673204212
LARETS                  
1 27944U 03042F   26091.15007331  .00000071  00000+0  23327-4 0  9991
2 27944  98.4059 251.7739 0011044 277.4810  82.5137 14.63854207202095
GALAXY 13 (HORIZONS-1)  
1 27954U 03044A   26091.14350360  .00000123  00000+0  00000+0 0  9992
2 27954   1.2193  84.8270 0002181 290.2221  76.1134  1.00273688 45808
IRS-P6 (RESOURCESAT-1)  
1 28051U 03046A   26091.24427412  .00000203  00000+0  82045-4 0  9990
2 28051  98.2003 131.4960 0063476 212.2066 223.2420 14.36130542169481
DMSP 5D-3 F16 (USA 172) 
1 28054U 03048A   26091.20746627  .00000143  00000+0  98496-4 0  9993
2 28054  98.9964 114.5027 0007200  14.3821  69.3959 14.14470752158600
CHUANGXIN 1 (CX-1)      
1 28058U 03049B   26091.15735873  .00000283  00000+0  87506-4 0  9998
2 28058  98.5156 349.6385 0013552  59.4266 300.8262 14.48543902185123
YAMAL 202               
1 28089U 03053A   26090.71466127 -.00000087  00000+0  00000+0 0  9993
2 28089   6.1477  71.8691 0004714 265.4795 272.5914  1.00272948 81923
UFO 11 (USA 174)        
1 28117U 03057A   26090.91105693 -.00000110  00000+0  00000+0 0  9996
2 28117   8.8912  34.1973 0003062 318.3845 240.1050  1.00272234 81674
NAVSTAR 53 (USA 175)    
1 28129U 03058A   26089.16246319 -.00000106  00000+0  00000+0 0  9991
2 28129  54.9823  26.1929 0003064 319.7146  40.2478  1.92678458162945
USA 176 (DSP 22)        
1 28158U 04004A   26091.13480193 -.00000231  00000+0  00000+0 0  9994
2 28158  11.9596  26.6343 0002299 298.7665 184.6552  1.00431408 32160
