[{"OBJECT_NAME":"MOST","OBJECT_ID":"2003-031D","EPOCH":"2026-03-31T23:39:21.467232","MEAN_MOTION":14.21305539,"ECCENTRICITY":0.0010888,"INCLINATION":98.7078,"RA_OF_ASC_NODE":99.7812,"ARG_OF_PERICENTER":113.0571,"MEAN_ANOMALY":247.1755,"EPHEMERIS_TYPE":0,"CLASSIFICATION_TYPE":"U","NORAD_CAT_ID":27843,"ELEMENT_SET_NO":999,"REV_AT_EPOCH":17974,"BSTAR":7.6849e-5,"MEAN_MOTION_DOT":1.24e-6,"MEAN_MOTION_DDOT":0},{"OBJECT_NAME":"CUTE-1 (CO-55)","OBJECT_ID":"2003-031E","EPOCH":"2026-03-31T23:22:21.141120","MEAN_MOTION":14.24284909,"ECCENTRICITY":0.0010512,"INCLINATION":98.6771,"RA_OF_ASC_NODE":100.4967,"ARG_OF_PERICENTER":54.3759,"MEAN_ANOMALY":305.8398,"EPHEMERIS_TYPE":0,"CLASSIFICATION_TYPE":"U","NORAD_CAT_ID":27844,"ELEMENT_SET_NO":999,"REV_AT_EPOCH":18068,"BSTAR":0.00021335,"MEAN_MOTION_DOT":4.49e-6,"MEAN_MOTION_DDOT":0},{"OBJECT_NAME":"CUBESAT XI-IV (CO-57)","OBJECT_ID":"2003-031J","EPOCH":"2026-03-31T23:51:25.831872","MEAN_MOTION":14.23577169,"ECCENTRICITY":0.0010565,"INCLINATION":98.6804,"RA_OF_ASC_NODE":100.2915,"ARG_OF_PERICENTER":70.7946,"MEAN_ANOMALY":289.4374,"EPHEMERIS_TYPE":0,"CLASSIFICATION_TYPE":"U","NORAD_CAT_ID":27848,"ELEMENT_SET_NO":999,"REV_AT_EPOCH":18039,"BSTAR":0.00018105,"MEAN_MOTION_DOT":3.69e-6,"MEAN_MOTION_DDOT":0},{"OBJECT_NAME":"SCISAT 1","OBJECT_ID":"2003-036A","EPOCH":"2026-04-01T02:30:32.783904","MEAN_MOTION":14.81354478,"ECCENTRICITY":0.0006279,"INCLINATION":73.9308,"RA_OF_ASC_NODE":324.4895,"ARG_OF_PERICENTER":39.1185,"MEAN_ANOMALY":321.0444,"EPHEMERIS_TYPE":0,"CLASSIFICATION_TYPE":"U","NORAD_CAT_ID":27858,"ELEMENT_SET_NO":999,"REV_AT_EPOCH":22003,"BSTAR":0.00013038,"MEAN_MOTION_DOT":9.83e-6,"MEAN_MOTION_DDOT":0},{"OBJECT_NAME":"COSMOS 2400","OBJECT_ID":"2003-037A","EPOCH":"2026-04-01T04:05:44.981664","MEAN_MOTION":12.45188125,"ECCENTRICITY":0.002051,"INCLINATION":82.4761,"RA_OF_ASC_NODE":18.1378,"ARG_OF_PERICENTER":222.6151,"MEAN_ANOMALY":137.3339,"EPHEMERIS_TYPE":0,"CLASSIFICATION_TYPE":"U","NORAD_CAT_ID":27868,"ELEMENT_SET_NO":999,"REV_AT_EPOCH":2795,"BSTAR":-0.00013917,"MEAN_MOTION_DOT":-1.0e-7,"MEAN_MOTION_DDOT":0},{"OBJECT_NAME":"COSMOS 2401","OBJECT_ID":"2003-037B","EPOCH":"2026-04-01T03:39:30.499776","MEAN_MOTION":12.45500957,"ECCENTRICITY":0.0021307,"INCLINATION":82.4758,"RA_OF_ASC_NODE":14.5629,"ARG_OF_PERICENTER":217.9147,"MEAN_ANOMALY":142.0435,"EPHEMERIS_TYPE":0,"CLASSIFICATION_TYPE":"U","NORAD_CAT_ID":27869,"ELEMENT_SET_NO":999,"REV_AT_EPOCH":2818,"BSTAR":-0.00028227,"MEAN_MOTION_DOT":-3.1e-7,"MEAN_MOTION_DDOT":0},{"OBJECT_NAME":"USA 170","OBJECT_ID":"2003-040A","EPOCH":"2026-03-31T19:57:55.584576","MEAN_MOTION":1.00272632,"ECCENTRICITY":0.0001978,"INCLINATION":10.3384,"RA_OF_ASC_NODE":48.6675,"ARG_OF_PERICENTER":359.9369,"MEAN_ANOMALY":104.1632,"EPHEMERIS_TYPE":0,"CLASSIFICATION_TYPE":"U","NORAD_CAT_ID":27875,"ELEMENT_SET_NO":999,"REV_AT_EPOCH":3222,"BSTAR":0,"MEAN_MOTION_DOT":1.2e-6,"MEAN_MOTION_DDOT":0},{"OBJECT_NAME":"MOZHAETS 4 (RS22)","OBJECT_ID":"2003-042A","EPOCH":"2026-04-01T05:04:22.869984","MEAN_MOTION":14.73316673,"ECCENTRICITY":0.0011872,"INCLINATION":98.3454,"RA_OF_ASC_NODE":273.4022,"ARG_OF_PERICENTER":147.7798,"MEAN_ANOMALY":328.2037,"EPHEMERIS_TYPE":0,"CLASSIFICATION_TYPE":"U","NORAD_CAT_ID":27939,"ELEMENT_SET_NO":999,"REV_AT_EPOCH":20421,"BSTAR":0.00022404,"MEAN_MOTION_DOT":1.397e-5,"MEAN_MOTION_DDOT":0},{"OBJECT_NAME":"LARETS","OBJECT_ID":"2003-042F","EPOCH":"2026-04-01T03:36:06.333984","MEAN_MOTION":14.63854207,"ECCENTRICITY":0.0011044,"INCLINATION":98.4059,"RA_OF_ASC_NODE":251.7739,"ARG_OF_PERICENTER":277.481,"MEAN_ANOMALY":82.5137,"EPHEMERIS_TYPE":0,"CLASSIFICATION_TYPE":"U","NORAD_CAT_ID":27944,"ELEMENT_SET_NO":999,"REV_AT_EPOCH":20209,"BSTAR":2.3327e-5,"MEAN_MOTION_DOT":7.1e-7,"MEAN_MOTION_DDOT":0},{"OBJECT_NAME":"GALAXY 13 (HORIZONS-1)","OBJECT_ID":"2003-044A","EPOCH":"2026-04-01T03:26:38.711040","MEAN_MOTION":1.00273688,"ECCENTRICITY":0.0002181,"INCLINATION":1.2193,"RA_OF_ASC_NODE":84.827,"ARG_OF_PERICENTER":290.2221,"MEAN_ANOMALY":76.1134,"EPHEMERIS_TYPE":0,"CLASSIFICATION_TYPE":"U","NORAD_CAT_ID":27954,"ELEMENT_SET_NO":999,"REV_AT_EPOCH":4580,"BSTAR":0,"MEAN_MOTION_DOT":1.23e-6,"MEAN_MOTION_DDOT":0},{"OBJECT_NAME":"IRS-P6 (RESOURCESAT-1)","OBJECT_ID":"2003-046A","EPOCH":"2026-04-01T05:51:45.283968","MEAN_MOTION":14.36130542,"ECCENTRICITY":0.0063476,"INCLINATION":98.2003,"RA_OF_ASC_NODE":131.496,"ARG_OF_PERICENTER":212.2066,"MEAN_ANOMALY":223.242,"EPHEMERIS_TYPE":0,"CLASSIFICATION_TYPE":"U","NORAD_CAT_ID":28051,"ELEMENT_SET_NO":999,"REV_AT_EPOCH":16948,"BSTAR":8.2045e-5,"MEAN_MOTION_DOT":2.03e-6,"MEAN_MOTION_DDOT":0},{"OBJECT_NAME":"DMSP 5D-3 F16 (USA 172)","OBJECT_ID":"2003-048A","EPOCH":"2026-04-01T04:58:45.085728","MEAN_MOTION":14.14470752,"ECCENTRICITY":0.00072,"INCLINATION":98.9964,"RA_OF_ASC_NODE":114.5027,"ARG_OF_PERICENTER":14.3821,"MEAN_ANOMALY":69.3959,"EPHEMERIS_TYPE":0,"CLASSIFICATION_TYPE":"U","NORAD_CAT_ID":28054,"ELEMENT_SET_NO":999,"REV_AT_EPOCH":15860,"BSTAR":9.8496e-5,"MEAN_MOTION_DOT":1.43e-6,"MEAN_MOTION_DDOT":0},{"OBJECT_NAME":"CHUANGXIN 1 (CX-1)","OBJECT_ID":"2003-049B","EPOCH":"2026-04-01T03:46:35.794272","MEAN_MOTION":14.48543902,"ECCENTRICITY":0.0013552,"INCLINATION":98.5156,"RA_OF_ASC_NODE":349.6385,"ARG_OF_PERICENTER":59.4266,"MEAN_ANOMALY":300.8262,"EPHEMERIS_TYPE":0,"CLASSIFICATION_TYPE":"U","NORAD_CAT_ID":28058,"ELEMENT_SET_NO":999,"REV_AT_EPOCH":18512,"BSTAR":8.7506e-5,"MEAN_MOTION_DOT":2.83e-6,"MEAN_MOTION_DDOT":0},{"OBJECT_NAME":"YAMAL 202","OBJECT_ID":"2003-053A","EPOCH":"2026-03-31T17:09:06.733728","MEAN_MOTION":1.00272948,"ECCENTRICITY":0.0004715,"INCLINATION":6.1477,"RA_OF_ASC_NODE":71.8691,"ARG_OF_PERICENTER":265.4795,"MEAN_ANOMALY":272.5914,"EPHEMERIS_TYPE":0,"CLASSIFICATION_TYPE":"U","NORAD_CAT_ID":28089,"ELEMENT_SET_NO":999,"REV_AT_EPOCH":8192,"BSTAR":0,"MEAN_MOTION_DOT":-8.7e-7,"MEAN_MOTION_DDOT":0},{"OBJECT_NAME":"UFO 11 (USA 174)","OBJECT_ID":"2003-057A","EPOCH":"2026-03-31T21:51:55.318752","MEAN_MOTION":1.00272234,"ECCENTRICITY":0.0003062,"INCLINATION":8.8912,"RA_OF_ASC_NODE":34.1973,"ARG_OF_PERICENTER":318.3845,"MEAN_ANOMALY":240.105,"EPHEMERIS_TYPE":0,"CLASSIFICATION_TYPE":"U","NORAD_CAT_ID":28117,"ELEMENT_SET_NO":999,"REV_AT_EPOCH":8167,"BSTAR":0,"MEAN_MOTION_DOT":-1.1e-6,"MEAN_MOTION_DDOT":0},{"OBJECT_NAME":"NAVSTAR 53 (USA 175)","OBJECT_ID":"2003-058A","EPOCH":"2026-03-30T03:53:56.819616","MEAN_MOTION":1.92678458,"ECCENTRICITY":0.00030647,"INCLINATION":54.9823,"RA_OF_ASC_NODE":26.1929,"ARG_OF_PERICENTER":319.7146,"MEAN_ANOMALY":40.2478,"EPHEMERIS_TYPE":0,"CLASSIFICATION_TYPE":"U","NORAD_CAT_ID":28129,"ELEMENT_SET_NO":999,"REV_AT_EPOCH":16294,"BSTAR":0,"MEAN_MOTION_DOT":-1.06e-6,"MEAN_MOTION_DDOT":0},{"OBJECT_NAME":"USA 176 (DSP 22)","OBJECT_ID":"2004-004A","EPOCH":"2026-04-01T03:14:06.886752","MEAN_MOTION":1.00431408,"ECCENTRICITY":0.0002299,"INCLINATION":11.9596,"RA_OF_ASC_NODE":26.6343,"ARG_OF_PERICENTER":298.7665,"MEAN_ANOMALY":184.6552,"EPHEMERIS_TYPE":0,"CLASSIFICATION_TYPE":"U","NORAD_CAT_ID":28158,"ELEMENT_SET_NO":999,"REV_AT_EPOCH":3216,"BSTAR":0,"MEAN_MOTION_DOT":-2.31e-6,"MEAN_MOTION_DDOT":0}